*******************************************************************************
JPL/HORIZONS                93 Minerva (A867 QA)           2020-Jun-20 08:08:21
Rec #:      93 (+COV) Soln.date: 2020-May-20_00:58:15   # obs: 2638 (1870-2020)
 
IAU76/J2000 helio. ecliptic osc. elements (au, days, deg., period=Julian yrs):
 
  EPOCH=  2454697.5 ! 2008-Aug-19.00 (TDB)         Residual RMS= .28239
   EC= .1421631432807078   QR= 2.363674560115139   TP= 2454720.9360517319
   OM= 4.125839837188813   W=  275.7030499738842   IN= 8.556477789851808
   A= 2.755389374565656    MA= 354.9497363297164   ADIST= 3.147104189016173
   PER= 4.57386            N= .215491226           ANGMOM= .028264373
   DAN= 2.66209            DDN= 2.73839            L= 279.8926609
   B= -8.5138102           MOID= 1.36685002        TP= 2008-Sep-11.4360517319
 
Asteroid physical parameters (km, seconds, rotational period in hours):
   GM= n.a.                RAD= 77.0775            ROTPER= 5.982
   H= 7.9                  G= .150                 B-V= .685
                           ALBEDO= .056            STYP= C
 
ASTEROID comments: 
1: soln ref.= JPL#114, OCC=0
2: source=ORB
*******************************************************************************
 
 
*******************************************************************************
Ephemeris / WWW_USER Sat Jun 20 08:08:21 2020 Pasadena, USA      / Horizons
*******************************************************************************
Target body name: 93 Minerva (A867 QA)            {source: JPL#114}
Center body name: Solar System Barycenter (0)     {source: DE431}
Center-site name: BODY CENTER
*******************************************************************************
Start time      : A.D. 1969-Jun-28 00:00:00.0000 TDB
Stop  time      : A.D. 2071-May-04 00:00:00.0000 TDB
Step-size       : 7200 minutes
*******************************************************************************
Center geodetic : 0.00000000,0.00000000,0.0000000 {E-lon(deg),Lat(deg),Alt(km)}
Center cylindric: 0.00000000,0.00000000,0.0000000 {E-lon(deg),Dxy(km),Dz(km)}
Center radii    : (undefined)                                                  
Small perturbers: Yes                             {source: SB431-N16}
Output units    : AU-D
Output type     : GEOMETRIC cartesian states
Output format   : 2 (position and velocity)
Reference frame : Ecliptic of J2000.0
*******************************************************************************
Initial IAU76/J2000 heliocentric ecliptic osculating elements (au, days, deg.):
  EPOCH=  2454697.5 ! 2008-Aug-19.00 (TDB)         Residual RMS= .28239        
   EC= .1421631432807078   QR= 2.363674560115139   TP= 2454720.9360517319      
   OM= 4.125839837188813   W=  275.7030499738842   IN= 8.556477789851808       
  Equivalent ICRF heliocentric equatorial cartesian coordinates (au, au/d):
   X= 1.235559177799986E-01  Y=-2.003391577303054E+00  Z=-1.252149693868958E+00
  VX= 1.192119366248096E-02 VY= 7.459752719300146E-04 VZ= 3.152221187981118E-04
Asteroid physical parameters (km, seconds, rotational period in hours):        
   GM= n.a.                RAD= 77.0775            ROTPER= 5.982               
   H= 7.9                  G= .150                 B-V= .685                   
                           ALBEDO= .056            STYP= C                     
*******************************************************************************
            JDTDB,            Calendar Date (TDB),        delta-T,                      X,                      Y,                      Z,                     VX,                     VY,                     VZ,
******************************************************************************************************************************************************************************************************************
$$SOE
2475260.500000000, A.D. 2064-Dec-06 00:00:00.0000,      69.183222,  2.194952441259837E+00,  1.897916073790000E+00,  2.670731553300072E-01, -5.447466804527495E-03,  8.057102852814763E-03,  1.250013607153731E-03,
2475265.500000000, A.D. 2064-Dec-11 00:00:00.0000,      69.183353,  2.167388484574627E+00,  1.937915018483904E+00,  2.732828700900166E-01, -5.577699367595172E-03,  7.942201002593756E-03,  1.233827904268287E-03,
2475270.500000000, A.D. 2064-Dec-16 00:00:00.0000,      69.183489,  2.139179613724377E+00,  1.977335386341876E+00,  2.794109968468091E-01, -5.705432272362853E-03,  7.825680635927319E-03,  1.217379681268820E-03,
2475275.500000000, A.D. 2064-Dec-21 00:00:00.0000,      69.183628,  2.110338329334699E+00,  2.016169211745696E+00,  2.854562420164127E-01, -5.830664711418510E-03,  7.707592379027670E-03,  1.200676521935912E-03,
2475280.500000000, A.D. 2064-Dec-26 00:00:00.0000,      69.183768,  2.080877134211417E+00,  2.054408779824171E+00,  2.914173495915731E-01, -5.953396612830738E-03,  7.587985905889719E-03,  1.183725873317760E-03,
2475285.500000000, A.D. 2064-Dec-31 00:00:00.0000,      69.183911,  2.050808529770352E+00,  2.092046621713812E+00,  2.972931004603084E-01, -6.073628597601994E-03,  7.466909947165955E-03,  1.166535046637036E-03,
2475290.500000000, A.D. 2065-Jan-05 00:00:00.0000,      69.184057,  2.020145012675134E+00,  2.129075509866549E+00,  3.030823117293340E-01, -6.191361938963320E-03,  7.344412300126143E-03,  1.149111218337990E-03,
2475295.500000000, A.D. 2065-Jan-10 00:00:00.0000,      69.184202,  1.988899071674423E+00,  2.165488453410074E+00,  3.087838360531568E-01, -6.306598523277324E-03,  7.220539839745129E-03,  1.131461431315070E-03,
2475300.500000000, A.D. 2065-Jan-15 00:00:00.0000,      69.184346,  1.957083184631078E+00,  2.201278693566339E+00,  3.143965609698270E-01, -6.419340812320927E-03,  7.095338530863051E-03,  1.113592596347725E-03,
2475305.500000000, A.D. 2065-Jan-20 00:00:00.0000,      69.184485,  1.924709815736803E+00,  2.236439699133252E+00,  3.199194082443737E-01, -6.529591806792724E-03,  6.968853441265995E-03,  1.095511493734768E-03,
2475310.500000000, A.D. 2065-Jan-25 00:00:00.0000,      69.184619,  1.891791412906369E+00,  2.270965162033652E+00,  3.253513332208444E-01, -6.637355010975963E-03,  6.841128755495700E-03,  1.077224775098204E-03,
2475315.500000000, A.D. 2065-Jan-30 00:00:00.0000,      69.184750,  1.858340405345597E+00,  2.304848992934801E+00,  3.306913241837077E-01, -6.742634398571105E-03,  6.712207789209732E-03,  1.058738965314786E-03,
2475320.500000000, A.D. 2065-Feb-04 00:00:00.0000,      69.184876,  1.824369201287165E+00,  2.338085316940764E+00,  3.359384017291511E-01, -6.845434379749379E-03,  6.582133003966717E-03,  1.040060464538499E-03,
2475325.500000000, A.D. 2065-Feb-09 00:00:00.0000,      69.184997,  1.789890185887986E+00,  2.370668469359643E+00,  3.410916181466691E-01, -6.945759769471951E-03,  6.450946022379405E-03,  1.021195550291975E-03,
2475330.500000000, A.D. 2065-Feb-14 00:00:00.0000,      69.185108,  1.754915719281828E+00,  2.402592991547498E+00,  3.461500568112687E-01, -7.043615757064436E-03,  6.318687643637562E-03,  1.002150379622193E-03,
2475335.500000000, A.D. 2065-Feb-19 00:00:00.0000,      69.185210,  1.719458134781130E+00,  2.433853626830821E+00,  3.511128315866139E-01, -7.139007876941171E-03,  6.185397859395628E-03,  9.829309913189665E-04,
2475340.500000000, A.D. 2065-Feb-24 00:00:00.0000,      69.185302,  1.683529737222592E+00,  2.464445316508977E+00,  3.559790862393380E-01, -7.231941980368532E-03,  6.051115869809402E-03,  9.635433081474729E-04,
2475345.500000000, A.D. 2065-Mar-01 00:00:00.0000,      69.185385,  1.647142801450892E+00,  2.494363195936237E+00,  3.607479938643209E-01, -7.322424208548562E-03,  5.915880099274395E-03,  9.439931389878003E-04,
2475350.500000000, A.D. 2065-Mar-06 00:00:00.0000,      69.185458,  1.610309570932519E+00,  2.523602590681959E+00,  3.654187563204795E-01, -7.410460967514016E-03,  5.779728212091600E-03,  9.242861809355163E-04,
2475355.500000000, A.D. 2065-Mar-11 00:00:00.0000,      69.185522,  1.573042256491436E+00,  2.552159012770915E+00,  3.699906036774603E-01, -7.496058904324433E-03,  5.642697128949352E-03,  9.044280215850591E-04,
2475360.500000000, A.D. 2065-Mar-16 00:00:00.0000,      69.185573,  1.535353035162355E+00,  2.580028157007883E+00,  3.744627936741754E-01, -7.579224883789838E-03,  5.504823044013916E-03,  8.844241414523290E-04,
2475365.500000000, A.D. 2065-Mar-21 00:00:00.0000,      69.185610,  1.497254049158658E+00,  2.607205897387565E+00,  3.788346111894044E-01, -7.659965965974908E-03,  5.366141441891199E-03,  8.642799163600252E-04,
2475370.500000000, A.D. 2065-Mar-26 00:00:00.0000,      69.185635,  1.458757404949988E+00,  2.633688283588731E+00,  3.831053677241762E-01, -7.738289384849056E-03,  5.226687114395785E-03,  8.440006197738367E-04,
2475375.500000000, A.D. 2065-Mar-31 00:00:00.0000,      69.185649,  1.419875172443752E+00,  2.659471537552170E+00,  3.872744008958207E-01, -7.814202528049629E-03,  5.086494177316334E-03,  8.235914251389459E-04,
2475380.500000000, A.D. 2065-Apr-05 00:00:00.0000,      69.185653,  1.380619384265291E+00,  2.684552050142583E+00,  3.913410739437433E-01, -7.887712917636595E-03,  4.945596087239170E-03,  8.030574082340191E-04,
2475385.500000000, A.D. 2065-Apr-10 00:00:00.0000,      69.185645,  1.341002035131965E+00,  2.708926377894733E+00,  3.953047752470101E-01, -7.958828191760425E-03,  4.804025658416634E-03,  7.824035495412478E-04,
2475390.500000000, A.D. 2065-Apr-15 00:00:00.0000,      69.185623,  1.301035081316712E+00,  2.732591239843985E+00,  3.991649178538154E-01, -8.027556087199076E-03,  4.661815079649873E-03,  7.616347366268395E-04,
2475395.500000000, A.D. 2065-Apr-20 00:00:00.0000,      69.185588,  1.260730440196822E+00,  2.755543514441230E+00,  4.029209390228659E-01, -8.093904422732419E-03,  4.518995931157445E-03,  7.407557665265874E-04,
